QIANFAN-33              
1 61566U 24185Q   25327.98878571  .00000499  00000+0  35142-3 0  9995
2 61566  88.9797  80.8943 0007747  39.8164 320.3580 13.96530874 66540
QIANFAN-34              
1 61567U 24185R   25328.03106764  .00000574  00000+0  36574-3 0  9995
2 61567  88.9773  80.4783 0006940  48.2065 311.9707 14.02281574 66737
QIANFAN-35              
1 61568U 24185S   25327.98724200  .00000942  00000+0  37453-3 0  9996
2 61568  88.9800  79.0767 0006178   6.6898 353.4378 14.27919811 67500
QIANFAN-36              
1 61569U 24185T   25327.99313448  .00000242  00000+0  33072-3 0  9992
2 61569  88.9779  82.9937 0007786  98.5881 261.6155 13.55579506 65386
QIANFAN-37              
1 62238U 24232B   25328.10605609  .00000199  00000+0  28941-3 0  9996
2 62238  89.0036  43.2079 0002492 118.5167 241.6235 13.50986291 96653
QIANFAN-38              
1 62239U 24232C   25328.13071622  .00000196  00000+0  28468-3 0  9993
2 62239  89.0042  43.1199 0013083 243.8855 116.0951 13.50975489 96711
QIANFAN-39              
1 62240U 24232D   25328.03076667  .00000688  00000+0  28536-3 0  9990
2 62240  89.0033  39.4467 0018008 135.6161 224.6480 14.25365053 98728
QIANFAN-40              
1 62241U 24232E   25328.08956390  .00000196  00000+0  28541-3 0  9996
2 62241  89.0070  42.7035 0011946 252.6110 107.3735 13.50975080 97077
