<?xml version="1.0" encoding="UTF-8"?>
<ndm xmlns:xsi="http://www.w3.org/2001/XMLSchema-instance" xsi:noNamespaceSchemaLocation="https://sanaregistry.org/r/ndmxml_unqualified/ndmxml-2.0.0-master-2.0.xsd">
<omm id="CCSDS_OMM_VERS" version="2.0">
<header><CREATION_DATE/><ORIGINATOR/></header><body><segment><metadata><OBJECT_NAME>QIANFAN-33</OBJECT_NAME><OBJECT_ID>2024-185Q</OBJECT_ID><CENTER_NAME>EARTH</CENTER_NAME><REF_FRAME>TEME</REF_FRAME><TIME_SYSTEM>UTC</TIME_SYSTEM><MEAN_ELEMENT_THEORY>SGP4</MEAN_ELEMENT_THEORY></metadata><data><meanElements><EPOCH>2025-11-23T23:43:51.085344</EPOCH><MEAN_MOTION>13.96530874</MEAN_MOTION><ECCENTRICITY>.0007747</ECCENTRICITY><INCLINATION>88.9797</INCLINATION><RA_OF_ASC_NODE>80.8943</RA_OF_ASC_NODE><ARG_OF_PERICENTER>39.8164</ARG_OF_PERICENTER><MEAN_ANOMALY>320.3580</MEAN_ANOMALY></meanElements><tleParameters><EPHEMERIS_TYPE>0</EPHEMERIS_TYPE><CLASSIFICATION_TYPE>U</CLASSIFICATION_TYPE><NORAD_CAT_ID>61566</NORAD_CAT_ID><ELEMENT_SET_NO>999</ELEMENT_SET_NO><REV_AT_EPOCH>6654</REV_AT_EPOCH><BSTAR>.35142E-3</BSTAR><MEAN_MOTION_DOT>.499E-5</MEAN_MOTION_DOT><MEAN_MOTION_DDOT>0</MEAN_MOTION_DDOT></tleParameters></data></segment></body></omm>
<omm id="CCSDS_OMM_VERS" version="2.0">
<header><CREATION_DATE/><ORIGINATOR/></header><body><segment><metadata><OBJECT_NAME>QIANFAN-34</OBJECT_NAME><OBJECT_ID>2024-185R</OBJECT_ID><CENTER_NAME>EARTH</CENTER_NAME><REF_FRAME>TEME</REF_FRAME><TIME_SYSTEM>UTC</TIME_SYSTEM><MEAN_ELEMENT_THEORY>SGP4</MEAN_ELEMENT_THEORY></metadata><data><meanElements><EPOCH>2025-11-24T00:44:44.244096</EPOCH><MEAN_MOTION>14.02281574</MEAN_MOTION><ECCENTRICITY>.000694</ECCENTRICITY><INCLINATION>88.9773</INCLINATION><RA_OF_ASC_NODE>80.4783</RA_OF_ASC_NODE><ARG_OF_PERICENTER>48.2065</ARG_OF_PERICENTER><MEAN_ANOMALY>311.9707</MEAN_ANOMALY></meanElements><tleParameters><EPHEMERIS_TYPE>0</EPHEMERIS_TYPE><CLASSIFICATION_TYPE>U</CLASSIFICATION_TYPE><NORAD_CAT_ID>61567</NORAD_CAT_ID><ELEMENT_SET_NO>999</ELEMENT_SET_NO><REV_AT_EPOCH>6673</REV_AT_EPOCH><BSTAR>.36574E-3</BSTAR><MEAN_MOTION_DOT>.574E-5</MEAN_MOTION_DOT><MEAN_MOTION_DDOT>0</MEAN_MOTION_DDOT></tleParameters></data></segment></body></omm>
<omm id="CCSDS_OMM_VERS" version="2.0">
<header><CREATION_DATE/><ORIGINATOR/></header><body><segment><metadata><OBJECT_NAME>QIANFAN-35</OBJECT_NAME><OBJECT_ID>2024-185S</OBJECT_ID><CENTER_NAME>EARTH</CENTER_NAME><REF_FRAME>TEME</REF_FRAME><TIME_SYSTEM>UTC</TIME_SYSTEM><MEAN_ELEMENT_THEORY>SGP4</MEAN_ELEMENT_THEORY></metadata><data><meanElements><EPOCH>2025-11-23T23:41:37.708800</EPOCH><MEAN_MOTION>14.27919811</MEAN_MOTION><ECCENTRICITY>.0006178</ECCENTRICITY><INCLINATION>88.9800</INCLINATION><RA_OF_ASC_NODE>79.0767</RA_OF_ASC_NODE><ARG_OF_PERICENTER>6.6898</ARG_OF_PERICENTER><MEAN_ANOMALY>353.4378</MEAN_ANOMALY></meanElements><tleParameters><EPHEMERIS_TYPE>0</EPHEMERIS_TYPE><CLASSIFICATION_TYPE>U</CLASSIFICATION_TYPE><NORAD_CAT_ID>61568</NORAD_CAT_ID><ELEMENT_SET_NO>999</ELEMENT_SET_NO><REV_AT_EPOCH>6750</REV_AT_EPOCH><BSTAR>.37453E-3</BSTAR><MEAN_MOTION_DOT>.942E-5</MEAN_MOTION_DOT><MEAN_MOTION_DDOT>0</MEAN_MOTION_DDOT></tleParameters></data></segment></body></omm>
<omm id="CCSDS_OMM_VERS" version="2.0">
<header><CREATION_DATE/><ORIGINATOR/></header><body><segment><metadata><OBJECT_NAME>QIANFAN-36</OBJECT_NAME><OBJECT_ID>2024-185T</OBJECT_ID><CENTER_NAME>EARTH</CENTER_NAME><REF_FRAME>TEME</REF_FRAME><TIME_SYSTEM>UTC</TIME_SYSTEM><MEAN_ELEMENT_THEORY>SGP4</MEAN_ELEMENT_THEORY></metadata><data><meanElements><EPOCH>2025-11-23T23:50:06.819072</EPOCH><MEAN_MOTION>13.55579506</MEAN_MOTION><ECCENTRICITY>.0007786</ECCENTRICITY><INCLINATION>88.9779</INCLINATION><RA_OF_ASC_NODE>82.9937</RA_OF_ASC_NODE><ARG_OF_PERICENTER>98.5881</ARG_OF_PERICENTER><MEAN_ANOMALY>261.6155</MEAN_ANOMALY></meanElements><tleParameters><EPHEMERIS_TYPE>0</EPHEMERIS_TYPE><CLASSIFICATION_TYPE>U</CLASSIFICATION_TYPE><NORAD_CAT_ID>61569</NORAD_CAT_ID><ELEMENT_SET_NO>999</ELEMENT_SET_NO><REV_AT_EPOCH>6538</REV_AT_EPOCH><BSTAR>.33072E-3</BSTAR><MEAN_MOTION_DOT>.242E-5</MEAN_MOTION_DOT><MEAN_MOTION_DDOT>0</MEAN_MOTION_DDOT></tleParameters></data></segment></body></omm>
<omm id="CCSDS_OMM_VERS" version="2.0">
<header><CREATION_DATE/><ORIGINATOR/></header><body><segment><metadata><OBJECT_NAME>QIANFAN-37</OBJECT_NAME><OBJECT_ID>2024-232B</OBJECT_ID><CENTER_NAME>EARTH</CENTER_NAME><REF_FRAME>TEME</REF_FRAME><TIME_SYSTEM>UTC</TIME_SYSTEM><MEAN_ELEMENT_THEORY>SGP4</MEAN_ELEMENT_THEORY></metadata><data><meanElements><EPOCH>2025-11-24T02:32:43.246176</EPOCH><MEAN_MOTION>13.50986291</MEAN_MOTION><ECCENTRICITY>.0002492</ECCENTRICITY><INCLINATION>89.0036</INCLINATION><RA_OF_ASC_NODE>43.2079</RA_OF_ASC_NODE><ARG_OF_PERICENTER>118.5167</ARG_OF_PERICENTER><MEAN_ANOMALY>241.6235</MEAN_ANOMALY></meanElements><tleParameters><EPHEMERIS_TYPE>0</EPHEMERIS_TYPE><CLASSIFICATION_TYPE>U</CLASSIFICATION_TYPE><NORAD_CAT_ID>62238</NORAD_CAT_ID><ELEMENT_SET_NO>999</ELEMENT_SET_NO><REV_AT_EPOCH>9665</REV_AT_EPOCH><BSTAR>.28941E-3</BSTAR><MEAN_MOTION_DOT>.199E-5</MEAN_MOTION_DOT><MEAN_MOTION_DDOT>0</MEAN_MOTION_DDOT></tleParameters></data></segment></body></omm>
<omm id="CCSDS_OMM_VERS" version="2.0">
<header><CREATION_DATE/><ORIGINATOR/></header><body><segment><metadata><OBJECT_NAME>QIANFAN-38</OBJECT_NAME><OBJECT_ID>2024-232C</OBJECT_ID><CENTER_NAME>EARTH</CENTER_NAME><REF_FRAME>TEME</REF_FRAME><TIME_SYSTEM>UTC</TIME_SYSTEM><MEAN_ELEMENT_THEORY>SGP4</MEAN_ELEMENT_THEORY></metadata><data><meanElements><EPOCH>2025-11-24T03:08:13.881408</EPOCH><MEAN_MOTION>13.50975489</MEAN_MOTION><ECCENTRICITY>.0013083</ECCENTRICITY><INCLINATION>89.0042</INCLINATION><RA_OF_ASC_NODE>43.1199</RA_OF_ASC_NODE><ARG_OF_PERICENTER>243.8855</ARG_OF_PERICENTER><MEAN_ANOMALY>116.0951</MEAN_ANOMALY></meanElements><tleParameters><EPHEMERIS_TYPE>0</EPHEMERIS_TYPE><CLASSIFICATION_TYPE>U</CLASSIFICATION_TYPE><NORAD_CAT_ID>62239</NORAD_CAT_ID><ELEMENT_SET_NO>999</ELEMENT_SET_NO><REV_AT_EPOCH>9671</REV_AT_EPOCH><BSTAR>.28468E-3</BSTAR><MEAN_MOTION_DOT>.196E-5</MEAN_MOTION_DOT><MEAN_MOTION_DDOT>0</MEAN_MOTION_DDOT></tleParameters></data></segment></body></omm>
<omm id="CCSDS_OMM_VERS" version="2.0">
<header><CREATION_DATE/><ORIGINATOR/></header><body><segment><metadata><OBJECT_NAME>QIANFAN-39</OBJECT_NAME><OBJECT_ID>2024-232D</OBJECT_ID><CENTER_NAME>EARTH</CENTER_NAME><REF_FRAME>TEME</REF_FRAME><TIME_SYSTEM>UTC</TIME_SYSTEM><MEAN_ELEMENT_THEORY>SGP4</MEAN_ELEMENT_THEORY></metadata><data><meanElements><EPOCH>2025-11-24T00:44:18.240288</EPOCH><MEAN_MOTION>14.25365053</MEAN_MOTION><ECCENTRICITY>.0018008</ECCENTRICITY><INCLINATION>89.0033</INCLINATION><RA_OF_ASC_NODE>39.4467</RA_OF_ASC_NODE><ARG_OF_PERICENTER>135.6161</ARG_OF_PERICENTER><MEAN_ANOMALY>224.6480</MEAN_ANOMALY></meanElements><tleParameters><EPHEMERIS_TYPE>0</EPHEMERIS_TYPE><CLASSIFICATION_TYPE>U</CLASSIFICATION_TYPE><NORAD_CAT_ID>62240</NORAD_CAT_ID><ELEMENT_SET_NO>999</ELEMENT_SET_NO><REV_AT_EPOCH>9872</REV_AT_EPOCH><BSTAR>.28536E-3</BSTAR><MEAN_MOTION_DOT>.688E-5</MEAN_MOTION_DOT><MEAN_MOTION_DDOT>0</MEAN_MOTION_DDOT></tleParameters></data></segment></body></omm>
<omm id="CCSDS_OMM_VERS" version="2.0">
<header><CREATION_DATE/><ORIGINATOR/></header><body><segment><metadata><OBJECT_NAME>QIANFAN-40</OBJECT_NAME><OBJECT_ID>2024-232E</OBJECT_ID><CENTER_NAME>EARTH</CENTER_NAME><REF_FRAME>TEME</REF_FRAME><TIME_SYSTEM>UTC</TIME_SYSTEM><MEAN_ELEMENT_THEORY>SGP4</MEAN_ELEMENT_THEORY></metadata><data><meanElements><EPOCH>2025-11-24T02:08:58.320960</EPOCH><MEAN_MOTION>13.50975080</MEAN_MOTION><ECCENTRICITY>.0011946</ECCENTRICITY><INCLINATION>89.0070</INCLINATION><RA_OF_ASC_NODE>42.7035</RA_OF_ASC_NODE><ARG_OF_PERICENTER>252.6110</ARG_OF_PERICENTER><MEAN_ANOMALY>107.3735</MEAN_ANOMALY></meanElements><tleParameters><EPHEMERIS_TYPE>0</EPHEMERIS_TYPE><CLASSIFICATION_TYPE>U</CLASSIFICATION_TYPE><NORAD_CAT_ID>62241</NORAD_CAT_ID><ELEMENT_SET_NO>999</ELEMENT_SET_NO><REV_AT_EPOCH>9707</REV_AT_EPOCH><BSTAR>.28541E-3</BSTAR><MEAN_MOTION_DOT>.196E-5</MEAN_MOTION_DOT><MEAN_MOTION_DDOT>0</MEAN_MOTION_DDOT></tleParameters></data></segment></body></omm>

</ndm>
